ORBCOMM FM37            
1 33064U 08031E   25014.94863753  .00002747  00000+0  39877-3 0  9991
2 33064  48.4408 351.6230 0005584  70.3096 319.7201 14.78698897891685
ORBCOMM FM40            
1 33065U 08031F   25015.30606302  .00003945  00000+0  53505-3 0  9993
2 33065  48.4428 336.3674 0006967  85.1909  67.3826 14.80661909891937
VESSELSAT 1             
1 37840U 11058C   25014.95855074  .00000425  00000+0  87166-4 0  9994
2 37840  19.9629 301.0438 0013534 301.2442  58.6636 14.11294031684638
ORBCOMM FM109           
1 40086U 14040A   25015.02369107  .00001412  00000+0  34321-3 0  9991
2 40086  47.0049  19.4232 0002358 332.1694  27.9065 14.57678235558837
ORBCOMM FM107           
1 40087U 14040B   25015.12751243  .00001107  00000+0  27675-3 0  9994
2 40087  47.0066  19.9488 0002260 298.0007  62.0649 14.57748057558844
ORBCOMM FM106           
1 40088U 14040C   25014.60334577  .00001592  00000+0  30209-3 0  9999
2 40088  47.0590 216.7102 0016613  75.0548 285.2181 14.68699019561105
ORBCOMM FM111           
1 40089U 14040D   25015.22504461  .00004410  00000+0  53463-3 0  9999
2 40089  47.0025  84.1304 0030464 183.9576 176.1083 14.84776123567486
ORBCOMM FM104           
1 40090U 14040E   25015.49934330  .00001096  00000+0  28316-3 0  9998
2 40090  47.0061  49.9942 0017228 230.4510 129.4853 14.56202732558467
